{"type": "FeatureCollection", "features": [ {"type": "Feature", "properties": {"norad_id": 40938, "name": "BEIDOU-3S IGSO-2S (C56)", "group": "gnss", "lat": -2.4601930361773197, "lon": -101.16600623385426, "alt_km": 36038.03024607181, "timestamp": "2025-12-18T04:58:34.820405+00:00", "meta": {"OBJECT_NAME": "BEIDOU-3S IGSO-2S (C56)", "OBJECT_ID": "2015-053A", "EPOCH": "2025-12-17T17:12:22.751136", "MEAN_MOTION": 1.00269192, "ECCENTRICITY": 0.00604784, "INCLINATION": 49.5029, "RA_OF_ASC_NODE": 260.9465, "ARG_OF_PERICENTER": 188.653, "MEAN_ANOMALY": 351.012, "EPHEMERIS_TYPE": 0, "CLASSIFICATION_TYPE": "U", "NORAD_CAT_ID": 40938, "ELEMENT_SET_NO": 999, "REV_AT_EPOCH": 3753, "BSTAR": 0, "MEAN_MOTION_DOT": -1.26e-06, "MEAN_MOTION_DDOT": 0}, "tle": {"line1": "1 40938U 15053A   25351.71692999 -.00000126  00000+0  00000+0 0  9994", "line2": "2 40938  49.5029 260.9465 0060478 188.6530 351.0120  1.00269192 37533"}}, "geometry": {"type": "Point", "coordinates": [-101.16600623385426, -2.4601930361773197]}}, {"type": "Feature", "properties": {"norad_id": 41019, "name": "GPS BIIF-11 (PRN 10)", "group": "gnss", "lat": -47.97920944212729, "lon": -8.667903884799118, "alt_km": 20070.871979281303, "timestamp": "2025-12-18T04:58:34.820419+00:00", "meta": {"OBJECT_NAME": "GPS BIIF-11 (PRN 10)", "OBJECT_ID": "2015-062A", "EPOCH": "2025-12-17T07:07:49.922112", "MEAN_MOTION": 2.00567224, "ECCENTRICITY": 0.01109439, "INCLINATION": 56.8355, "RA_OF_ASC_NODE": 37.826, "ARG_OF_PERICENTER": 230.0627, "MEAN_ANOMALY": 129.0159, "EPHEMERIS_TYPE": 0, "CLASSIFICATION_TYPE": "U", "NORAD_CAT_ID": 41019, "ELEMENT_SET_NO": 999, "REV_AT_EPOCH": 7418, "BSTAR": 0, "MEAN_MOTION_DOT": -7.6e-07, "MEAN_MOTION_DDOT": 0}, "tle": {"line1": "1 41019U 15062A   25351.29710558 -.00000076  00000+0  00000+0 0  9994", "line2": "2 41019  56.8355  37.8260 0110943 230.0627 129.0159  2.00567224 74188"}}, "geometry": {"type": "Point", "coordinates": [-8.667903884799118, -47.97920944212729]}}, {"type": "Feature", "properties": {"norad_id": 41028, "name": "GSAT-15 (GAGAN/PRN 139)", "group": "gnss", "lat": -0.02777766062475077, "lon": -104.78964904805977, "alt_km": 35776.385657125415, "timestamp": "2025-12-18T04:58:34.820433+00:00", "meta": {"OBJECT_NAME": "GSAT-15 (GAGAN/PRN 139)", "OBJECT_ID": "2015-065A", "EPOCH": "2025-12-17T20:37:08.654016", "MEAN_MOTION": 1.00271247, "ECCENTRICITY": 0.00025451, "INCLINATION": 0.0348, "RA_OF_ASC_NODE": 269.4843, "ARG_OF_PERICENTER": 322.2151, "MEAN_ANOMALY": 257.8098, "EPHEMERIS_TYPE": 0, "CLASSIFICATION_TYPE": "U", "NORAD_CAT_ID": 41028, "ELEMENT_SET_NO": 999, "REV_AT_EPOCH": 3698, "BSTAR": 0, "MEAN_MOTION_DOT": -2.33e-06, "MEAN_MOTION_DDOT": 0}, "tle": {"line1": "1 41028U 15065A   25351.85912794 -.00000233  00000+0  00000+0 0  9990", "line2": "2 41028   0.0348 269.4843 0002545 322.2151 257.8098  1.00271247 36989"}}, "geometry": {"type": "Point", "coordinates": [-104.78964904805977, -0.02777766062475077]}}, {"type": "Feature", "properties": {"norad_id": 41174, "name": "GSAT0209 (GALILEO 12)", "group": "gnss", "lat": -54.367028848354316, "lon": -1.8627035556790508, "alt_km": 23227.66357629713, "timestamp": "2025-12-18T04:58:34.820445+00:00", "meta": {"OBJECT_NAME": "GSAT0209 (GALILEO 12)", "OBJECT_ID": "2015-079A", "EPOCH": "2025-12-17T18:49:30.009504", "MEAN_MOTION": 1.70474581, "ECCENTRICITY": 0.00024688, "INCLINATION": 55.7156, "RA_OF_ASC_NODE": 106.2426, "ARG_OF_PERICENTER": 347.1145, "MEAN_ANOMALY": 12.8381, "EPHEMERIS_TYPE": 0, "CLASSIFICATION_TYPE": "U", "NORAD_CAT_ID": 41174, "ELEMENT_SET_NO": 999, "REV_AT_EPOCH": 6168, "BSTAR": 0, "MEAN_MOTION_DOT": -9e-08, "MEAN_MOTION_DDOT": 0}, "tle": {"line1": "1 41174U 15079A   25351.78437511 -.00000009  00000+0  00000+0 0  9999", "line2": "2 41174  55.7156 106.2426 0002468 347.1145  12.8381  1.70474581 61685"}}, "geometry": {"type": "Point", "coordinates": [-1.8627035556790508, -54.367028848354316]}}, {"type": "Feature", "properties": {"norad_id": 41175, "name": "GSAT0208 (GALILEO 11)", "group": "gnss", "lat": 42.91290819831283, "lon": -113.09321372470508, "alt_km": 23220.279840019924, "timestamp": "2025-12-18T04:58:34.820458+00:00", "meta": {"OBJECT_NAME": "GSAT0208 (GALILEO 11)", "OBJECT_ID": "2015-079B", "EPOCH": "2025-12-12T17:24:26.771040", "MEAN_MOTION": 1.70474307, "ECCENTRICITY": 0.00018806, "INCLINATION": 55.7111, "RA_OF_ASC_NODE": 106.3784, "ARG_OF_PERICENTER": 358.3144, "MEAN_ANOMALY": 1.6545, "EPHEMERIS_TYPE": 0, "CLASSIFICATION_TYPE": "U", "NORAD_CAT_ID": 41175, "ELEMENT_SET_NO": 999, "REV_AT_EPOCH": 6201, "BSTAR": 0, "MEAN_MOTION_DOT": 4e-08, "MEAN_MOTION_DDOT": 0}, "tle": {"line1": "1 41175U 15079B   25346.72530985  .00000004  00000+0  00000+0 0  9991", "line2": "2 41175  55.7111 106.3784 0001880 358.3144   1.6545  1.70474307 62017"}}, "geometry": {"type": "Point", "coordinates": [-113.09321372470508, 42.91290819831283]}}, {"type": "Feature", "properties": {"norad_id": 41241, "name": "IRNSS-1E", "group": "gnss", "lat": -16.34122540480922, "lon": -90.63147338322169, "alt_km": 35703.84691548805, "timestamp": "2025-12-18T04:58:34.820469+00:00", "meta": {"OBJECT_NAME": "IRNSS-1E", "OBJECT_ID": "2016-003A", "EPOCH": "2025-12-17T16:32:48.379776", "MEAN_MOTION": 1.00271769, "ECCENTRICITY": 0.00216842, "INCLINATION": 32.8362, "RA_OF_ASC_NODE": 62.381, "ARG_OF_PERICENTER": 188.2818, "MEAN_ANOMALY": 195.8729, "EPHEMERIS_TYPE": 0, "CLASSIFICATION_TYPE": "U", "NORAD_CAT_ID": 41241, "ELEMENT_SET_NO": 999, "REV_AT_EPOCH": 3626, "BSTAR": 0, "MEAN_MOTION_DOT": -3.06e-06, "MEAN_MOTION_DDOT": 0}, "tle": {"line1": "1 41241U 16003A   25351.68944884 -.00000306  00000+0  00000+0 0  9997", "line2": "2 41241  32.8362  62.3810 0021684 188.2818 195.8729  1.00271769 36266"}}, "geometry": {"type": "Point", "coordinates": [-90.63147338322169, -16.34122540480922]}}, {"type": "Feature", "properties": {"norad_id": 41328, "name": "GPS BIIF-12 (PRN 32)", "group": "gnss", "lat": -43.393002218874294, "lon": -42.70585286482748, "alt_km": 19944.23254974133, "timestamp": "2025-12-18T04:58:34.820480+00:00", "meta": {"OBJECT_NAME": "GPS BIIF-12 (PRN 32)", "OBJECT_ID": "2016-007A", "EPOCH": "2025-12-17T09:06:47.085696", "MEAN_MOTION": 2.00560552, "ECCENTRICITY": 0.0092397, "INCLINATION": 55.4087, "RA_OF_ASC_NODE": 96.6729, "ARG_OF_PERICENTER": 243.6823, "MEAN_ANOMALY": 115.3496, "EPHEMERIS_TYPE": 0, "CLASSIFICATION_TYPE": "U", "NORAD_CAT_ID": 41328, "ELEMENT_SET_NO": 999, "REV_AT_EPOCH": 7219, "BSTAR": 0, "MEAN_MOTION_DOT": -3.9e-07, "MEAN_MOTION_DDOT": 0}, "tle": {"line1": "1 41328U 16007A   25351.37971164 -.00000039  00000+0  00000+0 0  9997", "line2": "2 41328  55.4087  96.6729 0092397 243.6823 115.3496  2.00560552 72199"}}, "geometry": {"type": "Point", "coordinates": [-42.70585286482748, -43.393002218874294]}}, {"type": "Feature", "properties": {"norad_id": 41330, "name": "COSMOS 2514 (751)", "group": "gnss", "lat": 38.56551634516252, "lon": -19.10200019723876, "alt_km": 19155.650572514453, "timestamp": "2025-12-18T04:58:34.820493+00:00", "meta": {"OBJECT_NAME": "COSMOS 2514 (751)", "OBJECT_ID": "2016-008A", "EPOCH": "2025-12-17T05:05:28.456224", "MEAN_MOTION": 2.13102676, "ECCENTRICITY": 0.00118978, "INCLINATION": 65.1312, "RA_OF_ASC_NODE": 319.2508, "ARG_OF_PERICENTER": 220.152, "MEAN_ANOMALY": 139.7525, "EPHEMERIS_TYPE": 0, "CLASSIFICATION_TYPE": "U", "NORAD_CAT_ID": 41330, "ELEMENT_SET_NO": 999, "REV_AT_EPOCH": 7674, "BSTAR": 0, "MEAN_MOTION_DOT": -6.8e-07, "MEAN_MOTION_DDOT": 0}, "tle": {"line1": "1 41330U 16008A   25351.21213491 -.00000068  00000+0  00000+0 0  9998", "line2": "2 41330  65.1312 319.2508 0011897 220.1520 139.7525  2.13102676 76741"}}, "geometry": {"type": "Point", "coordinates": [-19.10200019723876, 38.56551634516252]}}, {"type": "Feature", "properties": {"norad_id": 41384, "name": "IRNSS-1F", "group": "gnss", "lat": 4.879816602837804, "lon": -166.13282727644258, "alt_km": 35781.64555436132, "timestamp": "2025-12-18T04:58:34.820504+00:00", "meta": {"OBJECT_NAME": "IRNSS-1F", "OBJECT_ID": "2016-015A", "EPOCH": "2025-12-17T13:28:51.655008", "MEAN_MOTION": 1.00275023, "ECCENTRICITY": 0.00226416, "INCLINATION": 4.893, "RA_OF_ASC_NODE": 101.1789, "ARG_OF_PERICENTER": 181.3031, "MEAN_ANOMALY": 38.5632, "EPHEMERIS_TYPE": 0, "CLASSIFICATION_TYPE": "U", "NORAD_CAT_ID": 41384, "ELEMENT_SET_NO": 999, "REV_AT_EPOCH": 3584, "BSTAR": 0, "MEAN_MOTION_DOT": 1.8e-06, "MEAN_MOTION_DDOT": 0}, "tle": {"line1": "1 41384U 16015A   25351.56170897  .00000180  00000+0  00000+0 0  9999", "line2": "2 41384   4.8930 101.1789 0022641 181.3031  38.5632  1.00275023 35842"}}, "geometry": {"type": "Point", "coordinates": [-166.13282727644258, 4.879816602837804]}}, {"type": "Feature", "properties": {"norad_id": 41434, "name": "BEIDOU-2 IGSO-6 (C13)", "group": "gnss", "lat": -29.703182683352093, "lon": -120.87616864790074, "alt_km": 35535.802724481764, "timestamp": "2025-12-18T04:58:34.820516+00:00", "meta": {"OBJECT_NAME": "BEIDOU-2 IGSO-6 (C13)", "OBJECT_ID": "2016-021A", "EPOCH": "2025-12-11T15:29:12.615360", "MEAN_MOTION": 1.00293077, "ECCENTRICITY": 0.00608616, "INCLINATION": 59.9644, "RA_OF_ASC_NODE": 39.9082, "ARG_OF_PERICENTER": 229.9753, "MEAN_ANOMALY": 135.9177, "EPHEMERIS_TYPE": 0, "CLASSIFICATION_TYPE": "U", "NORAD_CAT_ID": 41434, "ELEMENT_SET_NO": 999, "REV_AT_EPOCH": 3560, "BSTAR": 0, "MEAN_MOTION_DOT": -1.62e-06, "MEAN_MOTION_DDOT": 0}, "tle": {"line1": "1 41434U 16021A   25345.64528490 -.00000162  00000+0  00000+0 0  9991", "line2": "2 41434  59.9644  39.9082 0060861 229.9753 135.9177  1.00293077 35600"}}, "geometry": {"type": "Point", "coordinates": [-120.87616864790074, -29.703182683352093]}}]}